[{"OBJECT_NAME":"STARLINK-1122","OBJECT_ID":"2020-001AM","EPOCH":"2026-03-09T23:18:20.689056","MEAN_MOTION":15.30181808,"ECCENTRICITY":0.00012878,"INCLINATION":53.1607,"RA_OF_ASC_NODE":318.3008,"ARG_OF_PERICENTER":105.0684,"MEAN_ANOMALY":255.0459,"EPHEMERIS_TYPE":0,"CLASSIFICATION_TYPE":"U","NORAD_CAT_ID":44949,"ELEMENT_SET_NO":999,"REV_AT_EPOCH":34027,"BSTAR":-0.00011242947,"MEAN_MOTION_DOT":-3.685e-5,"MEAN_MOTION_DDOT":0},{"OBJECT_NAME":"DMSP 5D-2 F14 DEB","OBJECT_ID":"1997-012G","EPOCH":"2026-03-09T18:05:19.087296","MEAN_MOTION":15.2878374,"ECCENTRICITY":0.00491251,"INCLINATION":99.2047,"RA_OF_ASC_NODE":151.8456,"ARG_OF_PERICENTER":247.1908,"MEAN_ANOMALY":112.4133,"EPHEMERIS_TYPE":0,"CLASSIFICATION_TYPE":"U","NORAD_CAT_ID":62936,"ELEMENT_SET_NO":999,"REV_AT_EPOCH":6425,"BSTAR":0.05046686,"MEAN_MOTION_DOT":0.01624988,"MEAN_MOTION_DDOT":0}]
